0 OBJECT V
1 43738U 18096V   19245.50851682  .00004084  00000-0  14677-3 0  9999
2 43738  97.4549 316.1865 0025966  75.4001 285.0115 15.28905282 42369
0 OBJECT V
1 43738U 18096V   19245.83575813  .00003667  00000-0  13206-3 0  9997
2 43738  97.4548 316.5143 0025960  74.3007 286.1094 15.28907173 42414
0 OBJECT V
1 43738U 18096V   19244.91948114 +.00003971 +00000-0 +14283-3 0  9997
2 43738 097.4550 315.5964 0025989 077.3431 283.0712 15.28900029042272
0 OBJECT V
1 43738U 18096V   19245.18127493  .00004442  00000-0  15942-3 0  9993
2 43738  97.4549 315.8587 0025976  76.4661 283.9470 15.28903415 42312
0 PSLV R/B
1 43739U 18096W   19244.74732653 +.00002111 +00000-0 +54814-4 0  9998
2 43739 097.3951 317.3617 0053122 127.8625 232.7443 15.38725603042511
0 PSLV R/B
1 43739U 18096W   19245.20254675  .00003032  00000-0  77708-4 0  9993
2 43739  97.3949 317.8211 0053173 126.2785 234.3389 15.38729624 42580
0 FLOCK 3R 10
1 43740U 18096X   19245.16802720  .00005646  00000-0  21283-3 0  9999
2 43740  97.4546 315.1095 0019284  69.6375 290.6933 15.27302380 42288
0 FLOCK 3R 10
1 43740U 18096X   19245.43009471  .00005625  00000-0  21204-3 0  9991
2 43740  97.4546 315.3714 0019276  68.8251 291.5046 15.27305163 42325
0 FLOCK 3R 10
1 43740U 18096X   19244.90595925 +.00005000 +00000-0 +18885-3 0  9994
2 43740 097.4547 314.8477 0019298 070.4927 289.8394 15.27297989042242
0 FLOCK 3R 10
1 43740U 18096X   19245.82319572  .00004941  00000-0  18661-3 0  9993
2 43740  97.4543 315.7642 0019260  67.5495 292.7781 15.27307758 42382
0 FLOCK 3R 6
1 43741U 18096Y   19245.42802789  .00001527  00000-0  59447-4 0  9992
2 43741  97.4546 315.4389 0019494  70.1510  58.3117 15.27405075 42300
0 FLOCK 3R 6
1 43741U 18096Y   19245.75464668  .00001554  00000-0  60452-4 0  9996
2 43741  97.4553 315.7661 0019514  68.9512  54.3249 15.27406317 42351
0 FLOCK 3R 6
1 43741U 18096Y   19245.08840576  .00001406  00000-0  54981-4 0  9994
2 43741  97.4546 315.0992 0019536  71.2248 350.9663 15.27403064 42250
0 FLOCK 3R 7
1 43742U 18096Z   19245.14794094  .00001672  00000-0  64736-4 0  9999
2 43742  97.4567 315.1755 0019497  70.6486 344.1812 15.27449549 42254
0 FLOCK 3R 7
1 43742U 18096Z   19245.21505844  .00001675  00000-0  64867-4 0  9998
2 43742  97.4566 315.2426 0019507  70.3491 353.3107 15.27449819 42264
0 FLOCK 3R 7
1 43742U 18096Z   19245.75034500  .00001832  00000-0  70665-4 0  9991
2 43742  97.4562 315.7769 0019704  69.4369  55.7897 15.27452994 42343
0 REAKTOR HELLO WORLD
1 43743U 18096AA  19245.80784536  .00001165  00000-0  46940-4 0  9997
2 43743  97.4558 315.7078 0019818  70.0597  68.8031 15.26729007 42345
0 REAKTOR HELLO WORLD
1 43743U 18096AA  19245.47676784  .00001020  00000-0  41453-4 0  9999
2 43743  97.4559 315.3772 0019769  70.8221  49.5257 15.26727140 42296
0 REAKTOR HELLO WORLD
1 43743U 18096AA  19245.14235425  .00000959  00000-0  39145-4 0  9991
2 43743  97.4559 315.0432 0019792  71.9077  11.6066 15.26725865 42248
0 HIBER-1
1 43744U 18096AB  19244.75515975 +.00001088 +00000-0 +43576-4 0  9996
2 43744 097.4561 314.7801 0019880 073.4858 286.8563 15.27079691042192
0 HIBER-1
1 43744U 18096AB  19245.73805594  .00001158  00000-0  46213-4 0  9993
2 43744  97.4559 315.7619 0019841  70.2950 290.0427 15.27082390 42345
0 LEMUR 2 DULY
1 43745U 18096AC  19245.71899957  .00002930  00000-0  11021-3 0  9995
2 43745  97.4554 315.9345 0022359  69.7705 290.5936 15.27725416 42363
0 LEMUR 2 DULY
1 43745U 18096AC  19244.93301276 +.00002873 +00000-0 +10816-3 0  9997
2 43745 097.4556 315.1485 0022407 072.3430 288.0253 15.27720606042248
0 FLOCK 3R 2
1 43748U 18096AF  19244.73818804 +.00004472 +00000-0 +16671-3 0  9990
2 43748 097.4557 314.9496 0022770 074.5498 285.8254 15.27724349042213
0 FLOCK 3R 2
1 43748U 18096AF  19245.19667876  .00005226  00000-0  19427-3 0  9992
2 43748  97.4556 315.4082 0022729  72.9984 287.3743 15.27730559 42282
0 FLOCK 3R 14
1 43749U 18096AG  19244.92260300 +.00003902 +00000-0 +14374-3 0  9999
2 43749 097.4550 315.2843 0023183 074.3710 286.0086 15.28192174042257
0 FLOCK 3R 13
1 43750U 18096AH  19245.78761531  .00004069  00000-0  15014-3 0  9995
2 43750  97.4546 316.1193 0023176  71.8929 288.4832 15.28106277 42386
0 COSMOS 2530
1 43751U 18097A   19245.73627265  .00000015  00000-0  36674-4 0  9990
2 43751  82.5174 321.2653 0019654  50.6381 309.6439 12.42869930 34363
0 COSMOS 2530
1 43751U 18097A   19244.93129161 +.00000015 +00000-0 +36674-4 0  9993
2 43751 082.5174 321.7646 0019656 052.4827 307.8036 12.42869932034261
0 COSMOS 2530
1 43751U 18097A   19245.09228779  .00000015  00000-0  36674-4 0  9996
2 43751  82.5174 321.6647 0019657  52.1198 308.1656 12.42869935 34287
0 COSMOS 2530
1 43751U 18097A   19245.33378208  .00000015  00000-0  36674-4 0  9996
2 43751  82.5175 321.5152 0019648  51.5351 308.7487 12.42869933 34312
0 COSMOS 2531
1 43752U 18097B   19244.87794853 +.00000022 +00000-0 +84148-4 0  9990
2 43752 082.5211 321.9476 0017727 069.7373 290.5610 12.42887291034265
0 COSMOS 2531
1 43752U 18097B   19245.03894260  .00000022  00000-0  84148-4 0  9992
2 43752  82.5213 321.8471 0017671  68.7606 291.5350 12.42887279 34287
0 COSMOS 2531
1 43752U 18097B   19245.68291887  .00000022  00000-0  84148-4 0  9999
2 43752  82.5212 321.4485 0017678  68.1577 292.1383 12.42887259 34365
0 COSMOS 2531
1 43752U 18097B   19245.52192474  .00000022  00000-0  84148-4 0  9994
2 43752  82.5212 321.5483 0017681  68.5240 291.7719 12.42887251 34347
0 COSMOS 2532
1 43753U 18097C   19245.45645691  .00004284  00000-0  30832-1 0  9993
2 43753  82.5157 321.4807 0019113  67.6817 292.6045 12.42891233 34333
0 COSMOS 2532
1 43753U 18097C   19245.85894838  .00004284  00000-0  30832-1 0  9996
2 43753  82.5150 321.2306 0019282  68.1200 292.1800 12.42891879 34382
0 COSMOS 2532
1 43753U 18097C   19245.05396592  .00004284  00000-0  30832-1 0  9992
2 43753  82.5159 321.7309 0019175  69.4643 290.8295 12.42891711 34282
0 BREEZE-KM R/B
1 43754U 18097D   19244.91340900 +.00000043 +00000-0 +12808-3 0  9993
2 43754 082.5146 309.7160 0221821 347.8699 011.7110 12.80072059035282
0 BREEZE-KM R/B
1 43754U 18097D   19245.69499493  .00000041  00000-0  12107-3 0  9991
2 43754  82.5145 309.1958 0221790 346.0394  13.4637 12.80072090 35387
0 OBJECT E
1 43755U 18097E   19245.45649599  .00000041  00000-0  12082-3 0  9992
2 43755  82.5149 309.1250 0215622 344.9940  14.4843 12.80813502 35389
0 OBJECT E
1 43755U 18097E   19244.59724821 +.00000037 +00000-0 +10409-3 0  9994
2 43755 082.5149 309.6975 0215611 347.0191 012.5412 12.80813373035273
0 MINXSS-2
1 43758U 18099A   19244.89578582 +.00000452 +00000-0 +46021-4 0  9994
2 43758 097.7406 316.0437 0017251 078.1545 282.1610 14.95449897040679
0 MINXSS-2
1 43758U 18099A   19245.49798355  .00000383  00000-0  39752-4 0  9999
2 43758  97.7405 316.6384 0017227  76.2748 284.0389 14.95450621 40763
0 SIRION PATHFINDER-2
1 43759U 18099B   19245.81243234  .00000595  00000-0  59387-4 0  9998
2 43759  97.7400 316.8455 0015744  69.5861 290.7049 14.95153680 40798
0 SIRION PATHFINDER-2
1 43759U 18099B   19245.47781124  .00000584  00000-0  58355-4 0  9997
2 43759  97.7400 316.5152 0015749  70.6194 289.6727 14.95153302 40742
0 SIRION PATHFINDER-2
1 43759U 18099B   19244.94241718 +.00000536 +00000-0 +53950-4 0  9991
2 43759 097.7401 315.9867 0015755 072.2271 288.0667 14.95152634040675
0 SIRION PATHFINDER-2
1 43759U 18099B   19245.14318999  .00000551  00000-0  55385-4 0  9991
2 43759  97.7400 316.1849 0015752  71.6239 288.6693 14.95152873 40693
0 ELYUSIUM/LOWER FREE FLYE
1 43760U 18099C   19244.93255628 +.00000587 +00000-0 +58384-4 0  9999
2 43760 097.7407 315.9905 0015355 077.6244 282.6695 14.95300599040677
0 ELYUSIUM/LOWER FREE FLYE
1 43760U 18099C   19245.20022676  .00000701  00000-0  68743-4 0  9993
2 43760  97.7407 316.2548 0015344  76.8370 283.4561 14.95301438 40712
0 ELYUSIUM/LOWER FREE FLYE
1 43760U 18099C   19245.46789732  .00000744  00000-0  72631-4 0  9992
2 43760  97.7406 316.5191 0015341  76.0755 284.2171 14.95301866 40759
0 ELYUSIUM/LOWER FREE FLYE
1 43760U 18099C   19245.80248558  .00000759  00000-0  73964-4 0  9992
2 43760  97.7406 316.8495 0015339  75.0735 285.2183 14.95302218 40805
0 OBJECT D
1 43761U 18099D   19244.89464461 +.00000244 +00000-0 +27537-4 0  9998
2 43761 097.7425 315.9750 0016046 077.8825 282.4193 14.95035391040666
0 OBJECT D
1 43761U 18099D   19245.16236224  .00000230  00000-0  26223-4 0  9999
2 43761  97.7425 316.2393 0016035  77.0486 283.2524 14.95035685 40692
0 STPSAT-5
1 43762U 18099E   19244.89215385 +.00000475 +00000-0 +47602-4 0  9999
2 43762 097.7411 316.2224 0016033 081.5030 278.8007 14.95883505040805
0 STPSAT-5
1 43762U 18099E   19245.82863466  .00000368  00000-0  38008-4 0  9993
2 43762  97.7410 317.1479 0016013  78.5777 281.7241 14.95884499 40815
0 UPPER FREE FLYER
1 43763U 18099F   19245.86984298 -.00000370  00000-0 -28087-4 0  9996
2 43763  97.7396 317.0382 0014734  73.4111 286.8728 14.95563425 40825
0 UPPER FREE FLYER
1 43763U 18099F   19244.93316219 -.00000508 +00000-0 -40482-4 0  9991
2 43763 097.7399 316.1137 0014693 076.3752 283.9107 14.95563039040687
0 POLAR SCOUT KODIAK
1 43764U 18099G   19244.94316473 +.00000750 +00000-0 +71378-4 0  9990
2 43764 097.7397 316.4115 0017573 082.0067 278.3147 14.96296492040698
0 POLAR SCOUT KODIAK
1 43764U 18099G   19245.21065734  .00000815  00000-0  77072-4 0  9991
2 43764  97.7397 316.6760 0017577  81.1921 279.1290 14.96297174 40730
0 HAWK-A
1 43765U 18099H   19244.91951665 -.00000206 +00000-0 -13161-4 0  9990
2 43765 097.7372 316.2310 0016456 085.0091 275.3008 14.96003316040689
0 HAWK-A
1 43765U 18099H   19245.85592460 -.00000109  00000-0 -44884-5 0  9997
2 43765  97.7370 317.1562 0016437  82.2536 278.0551 14.96003238 40820
